{"type": "FeatureCollection", "features": [ {"type": "Feature", "properties": {"norad_id": 29878, "name": "FENGYUN 1C DEB", "group": "fengyun-1c-debris", "lat": -19.90504142895618, "lon": -32.47588333052363, "alt_km": 530.1310555624532, "timestamp": "2025-12-02T13:52:17.534137+00:00", "meta": {"OBJECT_NAME": "FENGYUN 1C DEB", "OBJECT_ID": "1999-025FY", "EPOCH": "2025-12-02T00:13:46.362432", "MEAN_MOTION": 15.06097229, "ECCENTRICITY": 0.00336473, "INCLINATION": 96.952, "RA_OF_ASC_NODE": 149.5435, "ARG_OF_PERICENTER": 213.0316, "MEAN_ANOMALY": 146.8811, "EPHEMERIS_TYPE": 0, "CLASSIFICATION_TYPE": "U", "NORAD_CAT_ID": 29878, "ELEMENT_SET_NO": 999, "REV_AT_EPOCH": 98486, "BSTAR": 0.0082420679, "MEAN_MOTION_DOT": 0.00123879, "MEAN_MOTION_DDOT": 0}, "tle": {"line1": "1 29878U 99025FY  25336.00956438  .00123879  00000+0  82421-2 0  9991", "line2": "2 29878  96.9520 149.5435 0033647 213.0316 146.8811 15.06097229984862"}}, "geometry": {"type": "Point", "coordinates": [-32.47588333052363, -19.90504142895618]}}, {"type": "Feature", "properties": {"norad_id": 29880, "name": "FENGYUN 1C DEB", "group": "fengyun-1c-debris", "lat": -73.43601768251632, "lon": -74.76738095673603, "alt_km": 1073.815773266013, "timestamp": "2025-12-02T13:52:17.534148+00:00", "meta": {"OBJECT_NAME": "FENGYUN 1C DEB", "OBJECT_ID": "1999-025GA", "EPOCH": "2025-12-02T06:22:29.540352", "MEAN_MOTION": 13.93860778, "ECCENTRICITY": 0.02310253, "INCLINATION": 98.1938, "RA_OF_ASC_NODE": 255.9806, "ARG_OF_PERICENTER": 130.8374, "MEAN_ANOMALY": 25.9574, "EPHEMERIS_TYPE": 0, "CLASSIFICATION_TYPE": "U", "NORAD_CAT_ID": 29880, "ELEMENT_SET_NO": 999, "REV_AT_EPOCH": 95416, "BSTAR": 0.0010458216, "MEAN_MOTION_DOT": 1.686e-05, "MEAN_MOTION_DDOT": 0}, "tle": {"line1": "1 29880U 99025GA  25336.26561968  .00001686  00000+0  10458-2 0  9994", "line2": "2 29880  98.1938 255.9806 0231025 130.8374  25.9574 13.93860778954160"}}, "geometry": {"type": "Point", "coordinates": [-74.76738095673603, -73.43601768251632]}}, {"type": "Feature", "properties": {"norad_id": 29881, "name": "FENGYUN 1C DEB", "group": "fengyun-1c-debris", "lat": -13.085674021812286, "lon": 127.81170923407376, "alt_km": 1053.9268230318758, "timestamp": "2025-12-02T13:52:17.534158+00:00", "meta": {"OBJECT_NAME": "FENGYUN 1C DEB", "OBJECT_ID": "1999-025GB", "EPOCH": "2025-12-01T21:19:42.686400", "MEAN_MOTION": 13.59549214, "ECCENTRICITY": 0.02915605, "INCLINATION": 98.7209, "RA_OF_ASC_NODE": 309.2416, "ARG_OF_PERICENTER": 100.0143, "MEAN_ANOMALY": 317.9156, "EPHEMERIS_TYPE": 0, "CLASSIFICATION_TYPE": "U", "NORAD_CAT_ID": 29881, "ELEMENT_SET_NO": 999, "REV_AT_EPOCH": 93087, "BSTAR": 0.0021795462, "MEAN_MOTION_DOT": 2.101e-05, "MEAN_MOTION_DDOT": 0}, "tle": {"line1": "1 29881U 99025GB  25335.88868850  .00002101  00000+0  21795-2 0  9991", "line2": "2 29881  98.7209 309.2416 0291560 100.0143 317.9156 13.59549214930874"}}, "geometry": {"type": "Point", "coordinates": [127.81170923407376, -13.085674021812286]}}, {"type": "Feature", "properties": {"norad_id": 29884, "name": "FENGYUN 1C DEB", "group": "fengyun-1c-debris", "lat": 78.11841108434905, "lon": -44.807145753636824, "alt_km": 746.3515972823143, "timestamp": "2025-12-02T13:52:17.534168+00:00", "meta": {"OBJECT_NAME": "FENGYUN 1C DEB", "OBJECT_ID": "1999-025GE", "EPOCH": "2025-12-02T01:56:00.569760", "MEAN_MOTION": 14.40225225, "ECCENTRICITY": 0.00444141, "INCLINATION": 99.6044, "RA_OF_ASC_NODE": 8.2256, "ARG_OF_PERICENTER": 167.3722, "MEAN_ANOMALY": 218.5427, "EPHEMERIS_TYPE": 0, "CLASSIFICATION_TYPE": "U", "NORAD_CAT_ID": 29884, "ELEMENT_SET_NO": 999, "REV_AT_EPOCH": 98396, "BSTAR": 0.00078814788, "MEAN_MOTION_DOT": 2.47e-05, "MEAN_MOTION_DDOT": 0}, "tle": {"line1": "1 29884U 99025GE  25336.08056215  .00002470  00000+0  78815-3 0  9996", "line2": "2 29884  99.6044   8.2256 0044414 167.3722 218.5427 14.40225225983964"}}, "geometry": {"type": "Point", "coordinates": [-44.807145753636824, 78.11841108434905]}}, {"type": "Feature", "properties": {"norad_id": 29885, "name": "FENGYUN 1C DEB", "group": "fengyun-1c-debris", "lat": -18.44173708049716, "lon": 89.46619604658153, "alt_km": 767.3905824660033, "timestamp": "2025-12-02T13:52:17.534178+00:00", "meta": {"OBJECT_NAME": "FENGYUN 1C DEB", "OBJECT_ID": "1999-025GF", "EPOCH": "2025-12-01T20:17:51.657792", "MEAN_MOTION": 14.13571871, "ECCENTRICITY": 0.01177221, "INCLINATION": 98.3539, "RA_OF_ASC_NODE": 271.5905, "ARG_OF_PERICENTER": 195.6724, "MEAN_ANOMALY": 238.5656, "EPHEMERIS_TYPE": 0, "CLASSIFICATION_TYPE": "U", "NORAD_CAT_ID": 29885, "ELEMENT_SET_NO": 999, "REV_AT_EPOCH": 97303, "BSTAR": 0.000158283, "MEAN_MOTION_DOT": 2.79e-06, "MEAN_MOTION_DDOT": 0}, "tle": {"line1": "1 29885U 99025GF  25335.84573678  .00000279  00000+0  15828-3 0  9997", "line2": "2 29885  98.3539 271.5905 0117722 195.6724 238.5656 14.13571871973039"}}, "geometry": {"type": "Point", "coordinates": [89.46619604658153, -18.44173708049716]}}, {"type": "Feature", "properties": {"norad_id": 29887, "name": "FENGYUN 1C DEB", "group": "fengyun-1c-debris", "lat": -45.47410916345304, "lon": 67.07370159686772, "alt_km": 728.1402288228646, "timestamp": "2025-12-02T13:52:17.534188+00:00", "meta": {"OBJECT_NAME": "FENGYUN 1C DEB", "OBJECT_ID": "1999-025GH", "EPOCH": "2025-12-02T04:19:01.466112", "MEAN_MOTION": 14.33632787, "ECCENTRICITY": 0.02877968, "INCLINATION": 98.7193, "RA_OF_ASC_NODE": 57.6957, "ARG_OF_PERICENTER": 30.2895, "MEAN_ANOMALY": 33.3433, "EPHEMERIS_TYPE": 0, "CLASSIFICATION_TYPE": "U", "NORAD_CAT_ID": 29887, "ELEMENT_SET_NO": 999, "REV_AT_EPOCH": 97823, "BSTAR": 0.00056358562, "MEAN_MOTION_DOT": 2.431e-05, "MEAN_MOTION_DDOT": 0}, "tle": {"line1": "1 29887U 99025GH  25336.17987808  .00002431  00000+0  56359-3 0  9996", "line2": "2 29887  98.7193  57.6957 0287796  30.2895  33.3433 14.33632787978230"}}, "geometry": {"type": "Point", "coordinates": [67.07370159686772, -45.47410916345304]}}, {"type": "Feature", "properties": {"norad_id": 29888, "name": "FENGYUN 1C DEB", "group": "fengyun-1c-debris", "lat": -3.506948522054368, "lon": -11.685838406058421, "alt_km": 951.4817763002238, "timestamp": "2025-12-02T13:52:17.534199+00:00", "meta": {"OBJECT_NAME": "FENGYUN 1C DEB", "OBJECT_ID": "1999-025GJ", "EPOCH": "2025-12-02T06:16:07.533120", "MEAN_MOTION": 14.19821518, "ECCENTRICITY": 0.02753376, "INCLINATION": 99.1922, "RA_OF_ASC_NODE": 168.5535, "ARG_OF_PERICENTER": 55.09, "MEAN_ANOMALY": 307.5818, "EPHEMERIS_TYPE": 0, "CLASSIFICATION_TYPE": "U", "NORAD_CAT_ID": 29888, "ELEMENT_SET_NO": 999, "REV_AT_EPOCH": 97355, "BSTAR": 0.00042856872, "MEAN_MOTION_DOT": 1.276e-05, "MEAN_MOTION_DDOT": 0}, "tle": {"line1": "1 29888U 99025GJ  25336.26119830  .00001276  00000+0  42857-3 0  9993", "line2": "2 29888  99.1922 168.5535 0275337  55.0900 307.5818 14.19821518973559"}}, "geometry": {"type": "Point", "coordinates": [-11.685838406058421, -3.506948522054368]}}, {"type": "Feature", "properties": {"norad_id": 29889, "name": "FENGYUN 1C DEB", "group": "fengyun-1c-debris", "lat": 42.692858753031025, "lon": -77.76800145609755, "alt_km": 802.6563274130658, "timestamp": "2025-12-02T13:52:17.534209+00:00", "meta": {"OBJECT_NAME": "FENGYUN 1C DEB", "OBJECT_ID": "1999-025GK", "EPOCH": "2025-12-02T06:44:05.423712", "MEAN_MOTION": 14.13491659, "ECCENTRICITY": 0.0154774, "INCLINATION": 99.4767, "RA_OF_ASC_NODE": 93.0529, "ARG_OF_PERICENTER": 68.104, "MEAN_ANOMALY": 354.4142, "EPHEMERIS_TYPE": 0, "CLASSIFICATION_TYPE": "U", "NORAD_CAT_ID": 29889, "ELEMENT_SET_NO": 999, "REV_AT_EPOCH": 97171, "BSTAR": 0.00038114641, "MEAN_MOTION_DOT": 7.56e-06, "MEAN_MOTION_DDOT": 0}, "tle": {"line1": "1 29889U 99025GK  25336.28061833  .00000756  00000+0  38115-3 0  9999", "line2": "2 29889  99.4767  93.0529 0154774  68.1040 354.4142 14.13491659971716"}}, "geometry": {"type": "Point", "coordinates": [-77.76800145609755, 42.692858753031025]}}, {"type": "Feature", "properties": {"norad_id": 29890, "name": "FENGYUN 1C DEB", "group": "fengyun-1c-debris", "lat": 10.580409613251254, "lon": 95.55600091439281, "alt_km": 816.766165280289, "timestamp": "2025-12-02T13:52:17.534219+00:00", "meta": {"OBJECT_NAME": "FENGYUN 1C DEB", "OBJECT_ID": "1999-025GL", "EPOCH": "2025-12-02T07:04:15.901536", "MEAN_MOTION": 14.2297185, "ECCENTRICITY": 0.00148732, "INCLINATION": 99.4676, "RA_OF_ASC_NODE": 97.0378, "ARG_OF_PERICENTER": 101.912, "MEAN_ANOMALY": 258.3725, "EPHEMERIS_TYPE": 0, "CLASSIFICATION_TYPE": "U", "NORAD_CAT_ID": 29890, "ELEMENT_SET_NO": 999, "REV_AT_EPOCH": 97302, "BSTAR": 0.0010725534, "MEAN_MOTION_DOT": 2.367e-05, "MEAN_MOTION_DDOT": 0}, "tle": {"line1": "1 29890U 99025GL  25336.29462849  .00002367  00000+0  10726-2 0  9991", "line2": "2 29890  99.4676  97.0378 0014873 101.9120 258.3725 14.22971850973024"}}, "geometry": {"type": "Point", "coordinates": [95.55600091439281, 10.580409613251254]}}, {"type": "Feature", "properties": {"norad_id": 29891, "name": "FENGYUN 1C DEB", "group": "fengyun-1c-debris", "lat": 57.1318067719743, "lon": -34.57824043336643, "alt_km": 916.6795657814046, "timestamp": "2025-12-02T13:52:17.534230+00:00", "meta": {"OBJECT_NAME": "FENGYUN 1C DEB", "OBJECT_ID": "1999-025GM", "EPOCH": "2025-12-02T00:07:54.673824", "MEAN_MOTION": 13.99978345, "ECCENTRICITY": 0.00616881, "INCLINATION": 98.7262, "RA_OF_ASC_NODE": 338.6263, "ARG_OF_PERICENTER": 290.3897, "MEAN_ANOMALY": 123.6106, "EPHEMERIS_TYPE": 0, "CLASSIFICATION_TYPE": "U", "NORAD_CAT_ID": 29891, "ELEMENT_SET_NO": 999, "REV_AT_EPOCH": 96338, "BSTAR": 0.00037942443, "MEAN_MOTION_DOT": 5.25e-06, "MEAN_MOTION_DDOT": 0}, "tle": {"line1": "1 29891U 99025GM  25336.00549391  .00000525  00000+0  37942-3 0  9993", "line2": "2 29891  98.7262 338.6263 0061688 290.3897 123.6106 13.99978345963389"}}, "geometry": {"type": "Point", "coordinates": [-34.57824043336643, 57.1318067719743]}}]}